#cP2023  4 19  0  0  0.00000000      96 ORBIT IGS20 HLM  IGS
## 2258 259200.00000000   900.00000000 60053 0.0000000000000
+   32   G01G02G03G04G05G06G07G08G09G10G11G12G13G14G15G16G17
+        G18G19G20G21G22G23G24G25G26G27G28G29G30G31G32  0  0
+          0  0  0  0  0  0  0  0  0  0  0  0  0  0  0  0  0
+          0  0  0  0  0  0  0  0  0  0  0  0  0  0  0  0  0
+          0  0  0  0  0  0  0  0  0  0  0  0  0  0  0  0  0
++         3  2  2  2  2  3  2  2  2  2  3  2  2  2  2  2  3
++         3  2  2  2  3  2  2  2  2  2  3  2  2  2  2  0  0
++         0  0  0  0  0  0  0  0  0  0  0  0  0  0  0  0  0
++         0  0  0  0  0  0  0  0  0  0  0  0  0  0  0  0  0
++         0  0  0  0  0  0  0  0  0  0  0  0  0  0  0  0  0
%c G  cc GPS ccc cccc cccc cccc cccc ccccc ccccc ccccc ccccc
%c cc cc ccc ccc cccc cccc cccc cccc ccccc ccccc ccccc ccccc
%f  1.2500000  1.025000000  0.00000000000  0.000000000000000
%f  0.0000000  0.000000000  0.00000000000  0.000000000000000
%i    0    0    0    0      0      0      0      0         0
%i    0    0    0    0      0      0      0      0         0
/* RAPID ORBIT COMBINATION FROM WEIGHTED AVERAGE OF:        
/* cod emr esa gfz grg jpl ngs sio usn whu                  
/* REFERENCED TO IGS TIME (IGST) AND TO WEIGHTED MEAN POLE: 
/* PCV:IGS20_2233 OL/AL:FES2014b NONE     Y  ORB:CMB CLK:CMB
*  2023  4 19  5 15  0.00000000
PG01 -13156.790267  11214.470409  19722.649827    192.065320  8  9  8 112       
PG02   4021.854813 -24777.851713  -8655.888902   -604.616338  3  9  5  88       
PG03 -23086.449429  12989.816017    348.831652   -325.666471  5  7  7 107       
PG04 -17453.885401   5014.508437 -19408.378435     20.386728  5  5  6 121       
PG05  21904.786195  -1482.287578 -15203.440897   -123.961199  3  5  5 118       
PG06   5518.221160  24369.410442  -8795.707422    587.248590  7 10  7 137       
PG07  -6967.486077  23304.546572  -9611.354860    198.077236  5  9  3 119       
PG08 -24045.810982  -4531.847879  10736.709222   -118.441774  4  7  7 102       
PG09  -7382.222118  13472.634730 -21736.258429   -176.981764  6  7  5 123       
PG10    371.844672 -16491.940198  20922.088474    -33.439521  3  7  3 109       
PG11  12546.860330  13487.072175 -19139.804184   -167.392365  5  7  7 131       
PG12  24398.929827 -10027.497020   2362.685849   -365.702993  4  4  3  98       
PG13  22656.857447  12816.622283   5617.563282    507.868097  2  5  5  92       
PG14  -3858.589619  17754.755539  19332.943833     29.587986  6  8  5 103       
PG15  24303.230215   1490.076563  10465.209705     31.928051  2  7  5 101       
PG16 -20589.208378  -3423.153928 -16990.312398   -507.764907  6  8  6 106       
PG17   6719.483134  18944.572400  17736.935378    711.248814  8 10  3 101       
PG18   5121.575782 -25083.818257  -6774.424413   -230.483519  5 10  6 133       
PG19  15253.896872  19468.993907   9833.924552    305.596801  3  7  4 141       
PG20  15828.365835   5946.906434 -20403.949679    438.227917  2  6    126       
PG21 -15398.426001   1241.529008  22158.138176    154.168786  4  7  5 139       
PG22 -17367.492772 -18791.518162   7875.314664    466.713055    10  6 101       
PG23  12478.623753 -18785.457980  13914.800621     17.852157  3  8  4  89       
PG24  14698.244309  -6869.236863  20612.255094   -157.285871  3  4  6 116       
PG25  18802.147155 -17175.741664  -7353.185810    436.682878  6  4  4 111       
PG26 -10627.128242 -11895.362452 -21371.645845    241.636927  7  8  4 111       
PG27 -23343.546354 -13128.710095    389.066180     55.721941  6  8  6  92       
PG28  -5606.266682 -25053.285619  -6846.685900     67.224086  6 11  6 100       
PG29  11753.089194  -9778.463279 -21783.172870   -596.104598  4  7  4  95       
PG30    711.688294  26373.943805   1370.786356   -521.657127  7  7  6 112       
PG31  -9635.397599 -20083.592563 -14306.508763   -214.292997  5  7  6  86       
PG32 -10639.116435 -18779.875164  15787.720606   -455.278210  6  6  4  98       
*  2023  4 19  5 30  0.00000000
PG01 -13276.123664   8825.711709  20838.483947    192.062393  7  8  8 115       
PG02   4354.928693 -23613.710799 -11194.319446   -604.613083  3  9  5  99       
PG03 -23012.823622  12691.934747   3236.668304   -325.658203  5  7  7  91       
PG04 -19237.376169   3833.065210 -17947.436814     20.395120  5  6  6 101       
PG05  20492.061752   -330.666640 -17130.381459   -123.962680  3  6  5 122       
PG06   5365.645882  25229.695614  -6047.288754    587.249517  7 11  7 133       
PG07  -7292.961346  21994.022151 -12078.325582    198.069756  5  8  4 107       
PG08 -24917.434413  -5204.580783   8189.744948   -118.443515  3  7  7 107       
PG09  -9570.796986  12341.423498 -21557.051461   -176.974543  6  6  5 121       
PG10   2369.855222 -17630.196856  19797.156269    -33.441165  3  7  2  99       
PG11  12375.930230  15585.226421 -17599.263961   -167.403909  5  7  8 134       
PG12  24103.261834  -9592.282777   5190.138445   -365.707154  4  3  3 101       
PG13  22933.902999  13282.894323   2810.133123    507.872994  2  5  6 104       
PG14  -5785.995652  18690.257478  17904.828069     29.598559  6  9  6 107       
PG15  25241.475906   2150.540936   7960.247596     31.931156  2  7  5 100       
PG16 -18880.735952  -4407.430554 -18655.049683   -507.762340  7  8  5 113       
PG17   4924.388571  17965.032686  19322.353185    711.250198  9 10  3 108       
PG18   5345.796866 -24155.289464  -9459.219027   -230.498430  4 10  6 124       
PG19  14092.385940  18887.374739  12304.455562    305.601343  3  7  4 138       
PG20  14088.838178   7590.346222 -21137.487630    438.225795  2  6    117       
PG21 -15698.118209  -1144.871587  22022.896871    154.168756  3  7  5 139       
PG22 -16425.328244 -18427.959957  10462.927020    466.719049    10  6 104       
PG23  13800.833113 -19433.292511  11565.637398     17.854524  3  8  4  95       
PG24  15058.834604  -4422.796117  21048.560668   -157.298968  3  4  5 117       
PG25  19505.071099 -17289.407284  -4607.604330    436.685387  6  5  4 110       
PG26  -8644.915581 -13304.745403 -21404.083073    241.636709  7  9  3 120       
PG27 -23168.941405 -13265.563765  -2452.894114     55.714285  6  9  6 107       
PG28  -5404.581170 -25690.040627  -4080.343694     67.229430  6 12  6  80       
PG29  13785.266605  -8428.985386 -21152.349715   -596.105855  3  7  4  94       
PG30    364.574965  26365.496399  -1450.283990   -521.655414  7  7  6 115       
PG31  -9408.790858 -21583.282730 -12029.046481   -214.294010  5  8  7 114       
PG32  -8909.466531 -18042.287501  17615.117128   -455.287112  5  6  4 111       
*  2023  4 19  5 45  0.00000000
PG01 -13535.554079   6342.083888  21582.391788    192.059424  7  8  7 111       
PG02   4801.012143 -22192.413556 -13538.582858   -604.609590  3  9  5  92       
PG03 -22689.766301  12201.868961   6068.273952   -325.649859  5  7  7  84       
PG04 -20916.774022   2829.859108 -16178.583790     20.403485  6  6  6  92       
PG05  18984.624704   1017.059219 -18767.488989   -123.964011  4  7  5 110       
PG06   5235.633759  25779.038278  -3193.994234    587.250440  8 11  6 127       
PG07  -7706.852342  20428.789752 -14327.018287    198.061643  6  8  4 113       
PG08 -25553.083321  -5712.763290   5504.630883   -118.445815  3  7  7 113       
PG09 -11776.870591  11340.947450 -21009.399532   -176.967334  6  5  6 104       
PG10   4186.213732 -18793.119756  18333.675937    -33.442622  3  6  2  90       
PG11  12308.767009  17497.759476 -15756.092998   -167.415407  5  7  7 134       
PG12  23560.112640  -8975.968480   7927.176950   -365.711338  3  4  3 109       
PG13  22967.238151  13559.361056    -45.189299    507.878078  3  5  5 102       
PG14  -7515.366633  19623.075609  16167.258177     29.609138  6  9  6 112       
PG15  25931.013515   2676.227566   5318.142647     31.934574  2  7  5 103       
PG16 -17081.520952  -5568.146923 -20010.942360   -507.759711  7  8  5 110       
PG17   2941.150015  17011.122626  20585.526007    711.252096  9 10  3 106       
PG18   5640.695129 -22945.080408 -11979.857822   -230.513275  4 11  7 102       
PG19  12668.084678  18232.392982  14563.776106    305.606078  3  8  4 137       
PG20  12390.258212   9360.942911 -21505.348782    438.224376  2  6    117       
PG21 -16119.522798  -3470.224789  21529.635274    154.168734  3  7  5 139       
PG22 -15225.015915 -17975.783145  12875.494689    466.725153    11  6  90       
PG23  14864.011910 -19984.099926   9015.915117     17.856899  3  8  4  94       
PG24  15537.566916  -1971.645378  21109.988127   -157.312051  3  4  4 118       
PG25  19947.284613 -17251.703491  -1781.931727    436.687854  5  6  4 109       
PG26  -6743.249096 -14799.548281 -21071.669080    241.636646  7  9  2 104       
PG27 -22715.626366 -13278.492471  -5253.824273     55.706713  7  9  6 105       
PG28  -5196.749478 -26021.895873  -1243.834101     67.234669  4 12  6 120       
PG29  15807.763636  -7237.981185 -20159.909042   -596.107667  2  6  4  76       
PG30     -8.281239  26055.556814  -4245.948328   -521.653742  7  6  6 108       
PG31  -9238.499695 -22824.893551  -9541.754856   -214.294937  5  8  7  99       
PG32  -6971.736159 -17318.819362  19145.545177   -455.295997  5  5  4 100       
EOF
